LEMUR-2-AMANDA-SVANTE   
1 48269U 21034B   26068.77637527  .00030872  00000+0  11134-2 0  9996
2 48269  97.5829 144.8625 0002703 205.4721 154.6385 15.28469003265849
STARLINK-31620          
1 59460U 24068F   26068.30324934 -.00000582  00000+0 -11633-4 0  9998
2 59460  43.0037  33.2379 0001087 268.8316  91.2411 15.27579794108508
